IRIDIUM 106             
1 41917U 17003A   23350.89535626  .00000336  00000+0  11296-3 0  9993
2 41917  86.3967 110.2288 0002123  87.1852 272.9587 14.34220390362306
IRIDIUM 103             
1 41918U 17003B   23351.44081324  .00000376  00000+0  12715-3 0  9998
2 41918  86.3967 109.9034 0002321  99.7091 260.4367 14.34219173362412
IRIDIUM 109             
1 41919U 17003C   23350.88900398  .00000057  00000+0  13293-4 0  9996
2 41919  86.3968 110.1780 0002024 106.4851 253.6567 14.34216870362299
IRIDIUM 102             
1 41920U 17003D   23351.41543804  .00000362  00000+0  12226-3 0  9996
2 41920  86.3968 109.9015 0001983  99.4601 260.6818 14.34220259362456
IRIDIUM 105             
1 41921U 17003E   23350.75824737  .00000410  00000+0  13925-3 0  9991
2 41921  86.3973  78.5835 0002169  96.8996 263.2446 14.34217685364210
IRIDIUM 104             
1 41922U 17003F   23351.35835567  .00000370  00000+0  12500-3 0  9995
2 41922  86.3969 109.9539 0002143 102.8413 257.3022 14.34221286362438
IRIDIUM 114             
1 41923U 17003G   23350.87632155  .00000174  00000+0  54959-4 0  9997
2 41923  86.3964 110.1426 0002067  91.9859 268.1573 14.34215509362342
IRIDIUM 108             
1 41924U 17003H   23350.76507300  .00000077  00000+0  20392-4 0  9995
2 41924  86.3966  78.5169 0002232  95.5832 264.5618 14.34216974364182
